{"spkid": "50843798", "covariance": {"labels": ["e", "q", "tp", "node", "peri", "i"], "elements": [{"label": "e", "title": "eccentricity", "value": ".5811534130617593", "units": null, "name": "e", "sigma": 1.50197662752577e-07}, {"name": "q", "sigma": 3.56499950656178e-07, "units": "au", "title": "perihelion distance", "value": ".9574257221754033", "label": "q"}, {"sigma": 5.47072743883222e-05, "name": "tp", "units": "TDB", "title": "time of perihelion passage", "value": "2458663.818213068587", "label": "tp"}, {"label": "node", "sigma": 0.00012456568490528, "name": "om", "title": "longitude of the ascending node", "value": "310.2406886146924", "units": "deg"}, {"label": "peri", "title": "argument of perihelion", "value": "311.3111806009836", "units": "deg", "name": "w", "sigma": 0.000111265310807417}, {"units": "deg", "title": "inclination", "value": "4.832417028920148", "sigma": 1.75448690887836e-05, "name": "i", "label": "i"}], "data": [["2.255933789633693E-14", "-5.35423134479872E-14", "5.394310150892699E-12", "-1.569912040210693E-14", "9.468086057239025E-13", "-8.669007025976214E-13"], ["-5.35423134479872E-14", "1.270922148178574E-13", "-1.274229766739897E-11", "1.570393974211687E-13", "-2.304699211099191E-12", "2.070571982629701E-12"], ["5.394310150892699E-12", "-1.274229766739897E-11", "2.992885870999175E-9", "2.472435867752572E-9", "-7.590932637345875E-10", "4.509492311000088E-11"], ["-1.569912040210693E-14", "1.570393974211687E-13", "2.472435867752572E-9", "1.551660985592151E-8", "-1.326387683341972E-8", "1.80240557016085E-9"], ["9.468086057239025E-13", "-2.304699211099191E-12", "-7.590932637345875E-10", "-1.326387683341972E-8", "1.237996938907118E-8", "-1.607566598674358E-9"], ["-8.669007025976214E-13", "2.070571982629701E-12", "4.509492311000088E-11", "1.80240557016085E-9", "-1.607566598674358E-9", "3.078224313425545E-10"]], "epoch": "2459122.5"}, "elements": [{"title": "eccentricity", "value": ".584671789916273", "units": null, "name": "e", "sigma": "1.5184E-7", "label": "e"}, {"units": "au", "title": "semi-major axis", "value": "2.280359241588743", "name": "a", "sigma": "3.7266E-8", "label": "a"}, {"label": "q", "units": "au", "value": ".9470975221569378", "title": "perihelion distance", "name": "q", "sigma": "3.612E-7"}, {"units": "deg", "value": "4.886642665427623", "title": "inclination; angle with respect to x-y ecliptic plane", "name": "i", "sigma": "1.7572E-5", "label": "i"}, {"value": "309.2287271088079", "title": "longitude of the ascending node", "units": "deg", "sigma": ".00012457", "name": "om", "label": "node"}, {"title": "argument of perihelion", "value": "312.590767958163", "units": "deg", "sigma": ".0001111", "name": "w", "label": "peri"}, {"label": "M", "sigma": "1.2456E-5", "name": "ma", "units": "deg", "title": "mean anomaly", "value": "2.813307766349484"}, {"label": "tp", "units": "TDB", "title": "time of perihelion passage", "value": "2461190.670802168752", "sigma": "4.339E-5", "name": "tp"}, {"label": "period", "units": "d", "title": "sidereal orbital period", "value": "1257.77608179736", "name": "per", "sigma": "3.0832E-5"}, {"value": ".2862194672087901", "title": "mean motion", "units": "deg/d", "sigma": "7.0162E-9", "name": "n", "label": "n"}, {"units": "au", "title": "aphelion distance", "value": "3.613620961020548", "name": "ad", "sigma": "5.9055E-8", "label": "Q"}], "epoch": "2461200.5"}